STARS-AO
1 43679U 18084J   25187.03492733  .00004103  00000-0  24670-3 0  9994
2 43679  98.0746  15.4719 0001046 253.6189 106.4925 15.11479256365087
KAIDUN-1
1 41915U 17002C   25187.22389760  .00058766  00000-0  61240-3 0  9998
2 41915  97.1525 216.4031 0001155 206.0412 154.0790 15.64368485470147
CAS-4B (ZHUHAI-1 02)
1 42759U 17034B   25187.20952436  .00070127  00000-0  64521-3 0  9994
2 42759  43.0042 162.7784 0019118 118.5724 241.7069 15.66523309446772
CAS-4A (ZHUHAI-1 01)
1 42761U 17034D   25187.21933902  .00075690  00000-0  65369-3 0  9996
2 42761  43.0080 159.5608 0020240 123.9229 236.3566 15.68017229446801
EAGLESAT-1
1 43018U 17073F   25186.65775899  .00062531  00000-0  10358-2 0  9998
2 43018  97.5362  81.4192 0079896   1.1361 359.0056 15.48341006414533
LUOJIA-1 01
1 43485U 18048B   25187.21591975  .00001663  00000-0  19969-3 0  9990
2 43485  97.8426 265.8193 0009659 169.1501 190.9924 14.85304243382807
DIWATA-2B (PO-101)
1 43678U 18084H   25187.16703839  .00002091  00000-0  18048-3 0  9995
2 43678  98.1037   4.3066 0008454 186.8308 173.2799 14.98421056364362
ESHAIL-2
1 43700U 18090A   25186.92891972  .00000161  00000-0  00000-0 0  9999
2 43700   0.0167  67.0159 0002481  70.0218 147.3137  1.00273454 24201
K2SAT
1 43761U 18099D   25187.07800400  .00002567  00000-0  18790-3 0  9998
2 43761  97.4681 235.0650 0013412  88.5853 271.6910 15.04372648360035
AISTECHSAT-2
1 43768U 18099L   25186.69344303  .00004914  00000-0  30098-3 0  9990
2 43768  97.4812 237.3980 0006500  66.1041 294.0870 15.10624828359882
SNUSAT-2
1 43782U 18099AA  25186.69954950  .00006564  00000-0  35497-3 0  9992
2 43782  97.4586 241.0379 0013339  68.0236 292.2412 15.14926462360455
ITASAT-1
1 43786U 18099AE  25186.73444816  .00004907  00000-0  27924-3 0  9991
2 43786  97.4555 240.5045 0015959 114.3717 245.9182 15.13197739360419
IRVINE02
1 43789U 18099AH  25186.76627774  .00027308  00000-0  70374-3 0  9990
2 43789  97.4646 255.1729 0009110  56.3107 303.9005 15.39132862361036
EAGLET-1
1 43790U 18099AJ  25186.74074646  .00003367  00000-0  21511-3 0  9992
2 43790  97.4755 240.3803 0013827  99.5902 260.6891 15.09234822360015
ESEO
1 43792U 18099AL  25186.83821052  .00000616  00000-0  50427-4 0  9998
2 43792  97.4453 233.3891 0014673  74.5003 285.7841 15.02690021359769
CSIM-FD
1 43793U 18099AM  25187.20450429  .00210554  00000-0  97716-3 0  9992
2 43793  97.4782 267.2864 0002473 147.6957 212.4464 15.82858132361843
HIBER-2
1 43774U 18099S   25186.71380589  .00029830  00000-0  75228-3 0  9994
2 43774  97.4881 256.3758 0005588  56.6276 303.5504 15.39804311361205
MINXSS-2
1 43758U 18099A   25186.75489273  .00013412  00000-0  51673-3 0  9997
2 43758  97.5009 252.8847 0012780  69.2080 291.0526 15.26393087360961
FOX-1CLIFF (AO-95)
1 43770U 18099N   25186.69622915  .00007929  00000-0  39684-3 0  9990
2 43770  97.4906 244.4970 0012179 119.0077 241.2379 15.17612678360510
MOVE-II
1 43780U 18099Y   25187.16182806  .00953067  43798-3  19697-2 0  9992
2 43780  97.4614 265.2261 0009910 246.2748 113.7490 15.99205511362016
CORVUS-BC4
1 43767U 18099K   25186.68244943  .00004339  00000-0  28135-3 0  9997
2 43767  97.4576 234.6787 0010528 112.2360 247.9986 15.08562514360095
CZ-4B R/B
1 43656U 18081B   25187.19556413  .00000048  00000-0  31736-4 0  9995
2 43656  99.3933  72.2911 0205202 182.8159 177.1883 14.31655970349797
COSMOS 2504 [i]
1 40555U 15020D   25187.13541583  .00000247  00000-0  82530-4 0  9995
2 40555  82.5178 138.7056 0609953 134.6451 230.6136 13.61047784503110
MERIDIAN-4
1 37398U 11018A   25186.37582383 -.00000056  00000-0 -20316-2 0  9999
2 37398  62.1031 130.1537 7371437 261.1631  17.0899  2.00530414103802
MERIDIAN-6
1 38995U 12063A   25186.16524140 -.00000176  00000-0  00000+0 0  9995
2 38995  64.7468  43.2173 7248949 231.3788  38.6412  2.00727862 92588
MERIDIAN-7
1 40296U 14069A   25186.73003885  .00000226  00000-0  00000-0 0  9997
2 40296  63.4823 250.9585 6815932 272.3938  17.6773  2.00622106 78286
METOP-C
1 43689U 18087A   25187.18091005  .00000077  00000-0  55090-4 0  9998
2 43689  98.7143 247.1780 0002371  94.6586 265.4862 14.21493613345676
FENGYUN-3B
1 37214U 10059A   25187.19825330  .00000041  00000-0  44732-4 0  9995
2 37214  99.0113 225.8361 0023215  87.1714 352.9987 14.14736279758546
FENGYUN-3C
1 39260U 13052A   25187.22365446  .00000081  00000-0  62392-4 0  9991
2 39260  98.4553 172.8500 0013664 302.4317  57.5536 14.15633479609682
EWS-G1 (GOES-13)
1 29155U 06018A   25186.79878936 -.00000046  00000-0  00000-0 0  9997
2 29155   3.6299  80.6888 0059996 267.3037 324.0129  0.98787347 39823
FENGYUN-2H
1 43491U 18050A   25186.93738343 -.00000113  00000-0  00000-0 0  9993
2 43491   2.1378  83.2401 0001643 109.8467 147.5387  1.00276279 25962
FENGYUN-2G
1 40367U 14090A   25187.01345627 -.00000288  00000-0  00000+0 0  9993
2 40367   4.7611  77.0496 0003824 140.1760 171.3738  1.00265905 38560
INMARSAT 4-F1
1 28628U 05009A   25186.74286663  .00000045  00000-0  00000-0 0  9993
2 28628   4.7167  42.3245 0002197  69.2058 257.9700  1.00272663 74190
INMARSAT 4-F2
1 28899U 05044A   25186.69142091 -.00000249  00000-0  00000-0 0  9999
2 28899   4.6450  43.5284 0002159  66.5033 206.2921  1.00271364 72042
INMARSAT 4-F3
1 33278U 08039A   25186.47396500 -.00000128  00000-0  00000-0 0  9991
2 33278   4.0030  30.0091 0002516  79.8623 246.4706  1.00271739 43066
INMARSAT 4A-F4 (ALPHASAT)
1 39215U 13038A   25187.14078819  .00000149  00000-0  00000+0 0  9999
2 39215   2.9435   4.2451 0002358 120.2689 235.4276  1.00274369 43803
ASTROCAST
1 43798U 18099AS  25187.22380543  .00012857  00000-0  45410-3 0  9998
2 43798  97.4835 254.8972 0007854  32.5309 327.6414 15.29317818361240
JY1SAT (JO-97)
1 43803U 18099AX  25186.63521915  .00009994  00000-0  44904-3 0  9994
2 43803  97.4652 245.4845 0008549  62.9089 297.3018 15.21313339360735
SUOMI-100
1 43804U 18099AY  25186.69219897  .00008054  00000-0  38945-3 0  9998
2 43804  97.4719 244.7618 0013527  62.4314 297.8293 15.18794098360661
GEO-KOMPSAT-2A
1 43823U 18100A   25187.23384984 -.00000327  00000-0  00000+0 0  9996
2 43823   0.0335 140.1301 0002265 322.1000  34.6624  1.00273061 24197
UWE-4
1 43880U 18111E   25186.70030770  .00012342  00000-0  47415-3 0  9997
2 43880  97.5882  99.9762 0013719 115.2982 244.9679 15.26500474357612
D-STAR ONE SPARROW
1 43881U 18111F   25186.74121884  .00017018  00000-0  55240-3 0  9999
2 43881  97.6086 104.7058 0008408 134.0972 226.0963 15.31990898357795
METEOR M2-2
1 44387U 19038A   25187.19420824  .00000073  00000-0  51289-4 0  9999
2 44387  98.8754 165.1388 0000593   2.2767 357.8414 14.24214470312043
MOMENTUS-X1
1 44408U 19038Y   25186.59550024  .00014498  00000-0  31328-3 0  9999
2 44408  97.7177 201.0428 0012298 188.0184 172.0869 15.44548641332721
MERIDIAN-8
1 44453U 19046A   25186.29455221  .00000144  00000-0  00000-0 0  9991
2 44453  62.8450  93.9821 6939691 273.9114  16.0595  2.00611607 43386
TAURUS-1
1 44530U 19059C   25187.14071808  .00004964  00000-0  91298-3 0  9997
2 44530  98.6089 327.8023 0007983 316.6639  43.3934 14.66088913307837
GAOFEN 12-01
1 44819U 19082A   25187.17517620  .00000352  00000-0  52749-4 0  9999
2 44819  97.8130 197.6089 0003957  66.0485 294.1142 14.80421279302892
DUCHIFAT-3
1 44854U 19089C   25187.14087756  .00040636  00000-0  74088-3 0  9992
2 44854  36.9406 186.0597 0005209 195.9734 164.0859 15.48481073307065
CAS-6 (TO-108)
1 44881U 19093C   25187.16442454  .00000730  00000-0  90323-4 0  9991
2 44881  97.7919 262.2583 0014758 139.9590 220.2717 14.85644540300025
ELEKTRO-L3
1 44903U 19095A   25186.93677527 -.00000080  00000-0  00000-0 0  9991
2 44903   0.0983 136.7147 0000792   2.3715 198.3356  1.00269968 20230
DOSAAF-85 (RS-44)
1 44909U 19096E   25186.58796398  .00000028  00000-0  72399-4 0  9992
2 44909  82.5195 209.9986 0216462 234.5962 123.4752 12.79741578258014
MERIDIAN-9
1 45254U 20015A   25186.51982522 -.00000243  00000-0  00000-0 0  9994
2 45254  65.3000 356.7629 6938350 283.5007  13.0362  2.00604095 39332
ION-MK01
1 46274U 20061C   25186.79432114  .00022628  00000-0  37251-3 0  9996
2 46274  97.2417 254.7084 0003682 120.2153 239.9465 15.52344384269046
UPMSAT-2
1 46276U 20061E   25187.19414726  .00074910  00000-0  56896-3 0  9999
2 46276  97.2428 262.5336 0002168 150.1066 210.0322 15.72095580269641
DEKART
1 46493U 20068H   25187.19500767  .00008195  00000-0  30606-3 0  9991
2 46493  97.8580 169.6430 0012988  69.8417 290.4216 15.27583582262782
NORBY
1 46494U 20068J   25186.87265080  .00009123  00000-0  29556-3 0  9996
2 46494  97.8557 172.0909 0011569  63.0955 297.1466 15.32200073262916
SALSAT (TUBSAT 22)
1 46495U 20068K   25186.89843738  .00005800  00000-0  24914-3 0  9992
2 46495  97.8610 166.1495 0013025  74.4632 285.8041 15.23035197262532
NETSAT-4
1 46504U 20068U   25186.49568782  .00010643  00000-0  35845-3 0  9998
2 46504  97.8455 165.7984 0009063 108.7665 251.4559 15.30924455262515
NETSAT-3
1 46505U 20068V   25186.90613547  .00009676  00000-0  34155-3 0  9992
2 46505  97.8456 165.1110 0008783 116.5341 243.6799 15.29427937262530
NETSAT-1
1 46506U 20068W   25186.91096878  .00006620  00000-0  27200-3 0  9995
2 46506  97.8485 162.7492 0008065 128.9884 231.2072 15.24527578262377
NETSAT-2
1 46507U 20068X   25186.88481344  .00011905  00000-0  40498-3 0  9994
2 46507  97.8455 165.6808 0007172 127.5505 232.6387 15.30580328262510
ARKTIKA-M1
1 47719U 21016A   25186.07563059 -.00000044  00000-0  00000-0 0  9994
2 47719  63.1493 105.3820 7119992 268.6832  16.4515  2.00622402 31822
SIMBA
1 47941U 21022K   25187.24130916  .00024411  00000-0  48890-3 0  9995
2 47941  97.4202  92.4003 0008597 199.9825 160.1089 15.46699790237318
UNISAT-7
1 47945U 21022P   25186.67384583  .00008120  00000-0  28394-3 0  9992
2 47945  97.4191  85.2558 0009871 225.4878 134.5556 15.29756943236704
GRBALPHA
1 47959U 21022AD  25160.45426279  .07940347  25506-5  90589-3 0  9995
2 47959  97.3899  75.6235 0011032 227.2558 132.7812 16.36806138232695
